     3.04           N: GNSS NAV DATA    M: MIXED            RINEX VERSION / TYPE
ORBIT-FORMATS       ASTRO-TOOLS         20240817 000000 UTC PGM / RUN BY / DATE
hand-authored RINEX 3.04 mixed nav sample, not real data    COMMENT
GPSA   1.1180D-08 -7.4506D-09 -5.9605D-08  1.1921D-07       IONOSPHERIC CORR
GPUT  0.0000000000D+00 0.000000D+00 589824 2326             TIME SYSTEM CORR
    18                                                      LEAP SECONDS
                                                            END OF HEADER
G01 2024 08 17 00 00 00-1.234567890123D-04-1.136868377216D-12 0.000000000000D+00
     1.000000000000D+01-1.562500000000D+01 0.000000000000D+00 5.000000000000D-01
    -8.940696716309D-07 1.000000000000D-02 1.000000000000D-05 5.150000000000D+03
     4.608000000000D+05 0.000000000000D+00 1.000000000000D+00 0.000000000000D+00
     9.500000000000D-01 2.000000000000D+02 3.000000000000D-01-8.000000000000D-09
     1.000000000000D-10 1.000000000000D+00 2.326000000000D+03 0.000000000000D+00
     2.400000000000D+00 0.000000000000D+00-5.122274160385D-09 1.000000000000D+01
     4.608000000000D+05 4.000000000000D+00 0.000000000000D+00                   
E11 2024 08 17 00 00 00-2.000000000000D-04-1.000000000000D-12 0.000000000000D+00
     2.000000000000D+01-2.000000000000D+01 0.000000000000D+00 6.000000000000D-01
    -1.000000000000D-06 2.000000000000D-02 2.000000000000D-05 5.440000000000D+03
     4.608000000000D+05 0.000000000000D+00 5.000000000000D-01 0.000000000000D+00
     9.800000000000D-01 2.200000000000D+02 4.000000000000D-01-7.000000000000D-09
     2.000000000000D-10 5.130000000000D+02 2.326000000000D+03 0.000000000000D+00
     3.120000000000D+00 0.000000000000D+00-3.000000000000D-09-3.500000000000D-09
     4.608000000000D+05 0.000000000000D+00                                      
R01 2024 08 17 00 15 00-1.000000000000D-04 0.000000000000D+00 9.000000000000D+03
     7.000000000000D+03 1.000000000000D+00 0.000000000000D+00 0.000000000000D+00
    -1.200000000000D+04-2.000000000000D+00 0.000000000000D+00 1.000000000000D+00
     2.100000000000D+04 3.000000000000D+00 0.000000000000D+00 0.000000000000D+00
